[{"OBJECT_NAME":"ONEWEB-0033","OBJECT_ID":"2020-008M","EPOCH":"2025-11-10T17:55:20.864064","MEAN_MOTION":13.10311041,"ECCENTRICITY":0.00019697,"INCLINATION":87.8789,"RA_OF_ASC_NODE":79.8312,"ARG_OF_PERICENTER":90.6512,"MEAN_ANOMALY":269.4841,"EPHEMERIS_TYPE":0,"CLASSIFICATION_TYPE":"U","NORAD_CAT_ID":45142,"ELEMENT_SET_NO":999,"REV_AT_EPOCH":27960,"BSTAR":-0.03143001,"MEAN_MOTION_DOT":-0.00010936,"MEAN_MOTION_DDOT":0},{"OBJECT_NAME":"ONEWEB-0035","OBJECT_ID":"2020-008N","EPOCH":"2025-11-10T14:59:36.500064","MEAN_MOTION":13.10375943,"ECCENTRICITY":0.00016593,"INCLINATION":87.8791,"RA_OF_ASC_NODE":79.8559,"ARG_OF_PERICENTER":97.1954,"MEAN_ANOMALY":262.9362,"EPHEMERIS_TYPE":0,"CLASSIFICATION_TYPE":"U","NORAD_CAT_ID":45143,"ELEMENT_SET_NO":999,"REV_AT_EPOCH":27931,"BSTAR":-0.0013436417,"MEAN_MOTION_DOT":-4.56e-6,"MEAN_MOTION_DDOT":0},{"OBJECT_NAME":"ONEWEB-0036","OBJECT_ID":"2020-008P","EPOCH":"2025-11-10T18:25:10.369632","MEAN_MOTION":13.10372678,"ECCENTRICITY":0.00012868,"INCLINATION":87.8799,"RA_OF_ASC_NODE":79.7826,"ARG_OF_PERICENTER":106.5784,"MEAN_ANOMALY":253.5485,"EPHEMERIS_TYPE":0,"CLASSIFICATION_TYPE":"U","NORAD_CAT_ID":45144,"ELEMENT_SET_NO":999,"REV_AT_EPOCH":27976,"BSTAR":-0.0017308964,"MEAN_MOTION_DOT":-5.92e-6,"MEAN_MOTION_DDOT":0},{"OBJECT_NAME":"ONEWEB-0038","OBJECT_ID":"2020-008Q","EPOCH":"2025-11-10T17:32:57.355296","MEAN_MOTION":13.11418363,"ECCENTRICITY":0.00031679,"INCLINATION":87.8862,"RA_OF_ASC_NODE":64.5622,"ARG_OF_PERICENTER":123.353,"MEAN_ANOMALY":236.7902,"EPHEMERIS_TYPE":0,"CLASSIFICATION_TYPE":"U","NORAD_CAT_ID":45145,"ELEMENT_SET_NO":999,"REV_AT_EPOCH":28169,"BSTAR":-0.00099023296,"MEAN_MOTION_DOT":-3.38e-6,"MEAN_MOTION_DDOT":0},{"OBJECT_NAME":"ONEWEB-0039","OBJECT_ID":"2020-008R","EPOCH":"2025-11-10T14:20:10.992480","MEAN_MOTION":13.10369035,"ECCENTRICITY":0.00013565,"INCLINATION":87.8797,"RA_OF_ASC_NODE":79.8319,"ARG_OF_PERICENTER":120.0056,"MEAN_ANOMALY":240.1207,"EPHEMERIS_TYPE":0,"CLASSIFICATION_TYPE":"U","NORAD_CAT_ID":45146,"ELEMENT_SET_NO":999,"REV_AT_EPOCH":27953,"BSTAR":-0.00069433999,"MEAN_MOTION_DOT":-2.3e-6,"MEAN_MOTION_DDOT":0},{"OBJECT_NAME":"ONEWEB-0040","OBJECT_ID":"2020-008S","EPOCH":"2025-11-10T14:10:37.575552","MEAN_MOTION":13.10370487,"ECCENTRICITY":0.00016274,"INCLINATION":87.879,"RA_OF_ASC_NODE":79.8614,"ARG_OF_PERICENTER":102.9177,"MEAN_ANOMALY":257.2133,"EPHEMERIS_TYPE":0,"CLASSIFICATION_TYPE":"U","NORAD_CAT_ID":45147,"ELEMENT_SET_NO":999,"REV_AT_EPOCH":27923,"BSTAR":0.00042067989,"MEAN_MOTION_DOT":1.6e-6,"MEAN_MOTION_DDOT":0},{"OBJECT_NAME":"ONEWEB-0043","OBJECT_ID":"2020-008U","EPOCH":"2025-11-10T08:43:09.418080","MEAN_MOTION":13.10370394,"ECCENTRICITY":0.00012065,"INCLINATION":87.8792,"RA_OF_ASC_NODE":79.8879,"ARG_OF_PERICENTER":111.9611,"MEAN_ANOMALY":248.1645,"EPHEMERIS_TYPE":0,"CLASSIFICATION_TYPE":"U","NORAD_CAT_ID":45149,"ELEMENT_SET_NO":999,"REV_AT_EPOCH":27952,"BSTAR":0.00011548865,"MEAN_MOTION_DOT":5.3e-7,"MEAN_MOTION_DDOT":0},{"OBJECT_NAME":"ONEWEB-0044","OBJECT_ID":"2020-008V","EPOCH":"2025-11-10T18:33:32.928192","MEAN_MOTION":13.10376553,"ECCENTRICITY":0.00013112,"INCLINATION":87.8794,"RA_OF_ASC_NODE":79.7975,"ARG_OF_PERICENTER":106.6616,"MEAN_ANOMALY":253.4655,"EPHEMERIS_TYPE":0,"CLASSIFICATION_TYPE":"U","NORAD_CAT_ID":45150,"ELEMENT_SET_NO":999,"REV_AT_EPOCH":27987,"BSTAR":-0.0013394326,"MEAN_MOTION_DOT":-4.55e-6,"MEAN_MOTION_DDOT":0},{"OBJECT_NAME":"ONEWEB-0045","OBJECT_ID":"2020-008W","EPOCH":"2025-11-10T17:25:24.775680","MEAN_MOTION":13.114159,"ECCENTRICITY":0.00016557,"INCLINATION":87.8874,"RA_OF_ASC_NODE":64.5435,"ARG_OF_PERICENTER":106.8571,"MEAN_ANOMALY":253.2739,"EPHEMERIS_TYPE":0,"CLASSIFICATION_TYPE":"U","NORAD_CAT_ID":45151,"ELEMENT_SET_NO":999,"REV_AT_EPOCH":28177,"BSTAR":-0.0012551361,"MEAN_MOTION_DOT":-4.32e-6,"MEAN_MOTION_DDOT":0},{"OBJECT_NAME":"ONEWEB-0047","OBJECT_ID":"2020-008X","EPOCH":"2025-11-10T18:23:58.534944","MEAN_MOTION":13.10371445,"ECCENTRICITY":0.00014636,"INCLINATION":87.8789,"RA_OF_ASC_NODE":79.8087,"ARG_OF_PERICENTER":103.6092,"MEAN_ANOMALY":256.5198,"EPHEMERIS_TYPE":0,"CLASSIFICATION_TYPE":"U","NORAD_CAT_ID":45152,"ELEMENT_SET_NO":999,"REV_AT_EPOCH":27959,"BSTAR":-0.0017073716,"MEAN_MOTION_DOT":-5.83e-6,"MEAN_MOTION_DDOT":0},{"OBJECT_NAME":"ONEWEB-0048","OBJECT_ID":"2020-008Y","EPOCH":"2025-11-10T18:16:48.817632","MEAN_MOTION":13.10373211,"ECCENTRICITY":0.00015659,"INCLINATION":87.8792,"RA_OF_ASC_NODE":79.8363,"ARG_OF_PERICENTER":98.7739,"MEAN_ANOMALY":261.3565,"EPHEMERIS_TYPE":0,"CLASSIFICATION_TYPE":"U","NORAD_CAT_ID":45153,"ELEMENT_SET_NO":999,"REV_AT_EPOCH":27920,"BSTAR":-0.0017072939,"MEAN_MOTION_DOT":-5.83e-6,"MEAN_MOTION_DDOT":0},{"OBJECT_NAME":"ONEWEB-0049","OBJECT_ID":"2020-008Z","EPOCH":"2025-11-10T14:40:29.624736","MEAN_MOTION":13.10373405,"ECCENTRICITY":0.00010672,"INCLINATION":87.8788,"RA_OF_ASC_NODE":79.8568,"ARG_OF_PERICENTER":93.1564,"MEAN_ANOMALY":266.9685,"EPHEMERIS_TYPE":0,"CLASSIFICATION_TYPE":"U","NORAD_CAT_ID":45154,"ELEMENT_SET_NO":999,"REV_AT_EPOCH":27940,"BSTAR":-0.0017405728,"MEAN_MOTION_DOT":-5.95e-6,"MEAN_MOTION_DDOT":0},{"OBJECT_NAME":"ONEWEB-0051","OBJECT_ID":"2020-008AA","EPOCH":"2025-11-10T17:22:58.064160","MEAN_MOTION":13.11415403,"ECCENTRICITY":0.00016496,"INCLINATION":87.8852,"RA_OF_ASC_NODE":64.5716,"ARG_OF_PERICENTER":100.97,"MEAN_ANOMALY":259.1614,"EPHEMERIS_TYPE":0,"CLASSIFICATION_TYPE":"U","NORAD_CAT_ID":45155,"ELEMENT_SET_NO":999,"REV_AT_EPOCH":28245,"BSTAR":-0.0014958474,"MEAN_MOTION_DOT":-5.17e-6,"MEAN_MOTION_DDOT":0},{"OBJECT_NAME":"ONEWEB-0052","OBJECT_ID":"2020-008AB","EPOCH":"2025-11-10T18:13:13.062144","MEAN_MOTION":13.10370427,"ECCENTRICITY":0.0001051,"INCLINATION":87.88,"RA_OF_ASC_NODE":79.7849,"ARG_OF_PERICENTER":95.3065,"MEAN_ANOMALY":264.8183,"EPHEMERIS_TYPE":0,"CLASSIFICATION_TYPE":"U","NORAD_CAT_ID":45156,"ELEMENT_SET_NO":999,"REV_AT_EPOCH":27933,"BSTAR":-0.0013295333,"MEAN_MOTION_DOT":-4.51e-6,"MEAN_MOTION_DDOT":0},{"OBJECT_NAME":"ONEWEB-0053","OBJECT_ID":"2020-008AC","EPOCH":"2025-11-10T14:08:14.402976","MEAN_MOTION":13.10371129,"ECCENTRICITY":0.00016003,"INCLINATION":87.8793,"RA_OF_ASC_NODE":79.8664,"ARG_OF_PERICENTER":112.5634,"MEAN_ANOMALY":247.5663,"EPHEMERIS_TYPE":0,"CLASSIFICATION_TYPE":"U","NORAD_CAT_ID":45157,"ELEMENT_SET_NO":999,"REV_AT_EPOCH":27928,"BSTAR":0.00035961956,"MEAN_MOTION_DOT":1.38e-6,"MEAN_MOTION_DDOT":0},{"OBJECT_NAME":"ONEWEB-0054","OBJECT_ID":"2020-008AD","EPOCH":"2025-11-10T18:38:20.175360","MEAN_MOTION":13.10376795,"ECCENTRICITY":0.00015064,"INCLINATION":87.8791,"RA_OF_ASC_NODE":79.8009,"ARG_OF_PERICENTER":97.1986,"MEAN_ANOMALY":262.9312,"EPHEMERIS_TYPE":0,"CLASSIFICATION_TYPE":"U","NORAD_CAT_ID":45158,"ELEMENT_SET_NO":999,"REV_AT_EPOCH":27942,"BSTAR":-0.00098082894,"MEAN_MOTION_DOT":-3.3e-6,"MEAN_MOTION_DDOT":0}]
