ONEWEB-0033             
1 45142U 20008M   25314.74676926 -.00010936  00000+0 -31430-1 0  9990
2 45142  87.8789  79.8312 0001969  90.6512 269.4841 13.10311041279606
ONEWEB-0035             
1 45143U 20008N   25314.62472801 -.00000456  00000+0 -13436-2 0  9997
2 45143  87.8791  79.8559 0001659  97.1954 262.9362 13.10375943279316
ONEWEB-0036             
1 45144U 20008P   25314.76748113 -.00000592  00000+0 -17309-2 0  9999
2 45144  87.8799  79.7826 0001286 106.5784 253.5485 13.10372678279766
ONEWEB-0038             
1 45145U 20008Q   25314.73121939 -.00000338  00000+0 -99023-3 0  9990
2 45145  87.8862  64.5622 0003167 123.3530 236.7902 13.11418363281695
ONEWEB-0039             
1 45146U 20008R   25314.59734945 -.00000230  00000+0 -69434-3 0  9996
2 45146  87.8797  79.8319 0001356 120.0056 240.1207 13.10369035279537
ONEWEB-0040             
1 45147U 20008S   25314.59071268  .00000160  00000+0  42068-3 0  9993
2 45147  87.8790  79.8614 0001627 102.9177 257.2133 13.10370487279230
ONEWEB-0043             
1 45149U 20008U   25314.36330345  .00000053  00000+0  11549-3 0  9995
2 45149  87.8792  79.8879 0001206 111.9611 248.1645 13.10370394279529
ONEWEB-0044             
1 45150U 20008V   25314.77329778 -.00000455  00000+0 -13394-2 0  9997
2 45150  87.8794  79.7975 0001311 106.6616 253.4655 13.10376553279873
ONEWEB-0045             
1 45151U 20008W   25314.72598120 -.00000432  00000+0 -12551-2 0  9991
2 45151  87.8874  64.5435 0001655 106.8571 253.2739 13.11415900281773
ONEWEB-0047             
1 45152U 20008X   25314.76664971 -.00000583  00000+0 -17074-2 0  9996
2 45152  87.8789  79.8087 0001463 103.6092 256.5198 13.10371445279597
ONEWEB-0048             
1 45153U 20008Y   25314.76167613 -.00000583  00000+0 -17073-2 0  9997
2 45153  87.8792  79.8363 0001565  98.7739 261.3565 13.10373211279207
ONEWEB-0049             
1 45154U 20008Z   25314.61145399 -.00000595  00000+0 -17406-2 0  9992
2 45154  87.8788  79.8568 0001067  93.1564 266.9685 13.10373405279403
ONEWEB-0051             
1 45155U 20008AA  25314.72428315 -.00000517  00000+0 -14958-2 0  9990
2 45155  87.8852  64.5716 0001649 100.9700 259.1614 13.11415403282458
ONEWEB-0052             
1 45156U 20008AB  25314.75917896 -.00000451  00000+0 -13295-2 0  9991
2 45156  87.8800  79.7849 0001051  95.3065 264.8183 13.10370427279337
ONEWEB-0053             
1 45157U 20008AC  25314.58905559  .00000138  00000+0  35962-3 0  9992
2 45157  87.8793  79.8664 0001600 112.5634 247.5663 13.10371129279284
ONEWEB-0054             
1 45158U 20008AD  25314.77662240 -.00000330  00000+0 -98083-3 0  9990
2 45158  87.8791  79.8009 0001506  97.1986 262.9312 13.10376795279421
